0 GLOBALSTAR M094
1 39074U 13005C   24144.67062953 -.00000097  00000-0  37684-4 0  9994
2 39074  51.9965 288.0804 0000988 120.3650 239.7314 12.62266152523183
0 GLOBALSTAR M096
1 39075U 13005D   24144.92130776 -.00000086  00000-0  10008-3 0  9990
2 39075  52.0091 335.5277 0001189 102.1952 257.9048 12.62266010522486
0 GLOBALSTAR M078
1 39076U 13005E   24145.13291019 -.00000003  00000-0  56303-3 0  9990
2 39076  51.9888  59.9235 0001541  49.9647 310.1355 12.62276090520997
0 GLOBALSTAR M095
1 39077U 13005F   24144.12917701 -.00000093  00000-0  58498-4 0  9999
2 39077  51.9815  60.3652 0001304  68.7327 291.3679 12.62266391520877
0 GLOBALSTAR M087
1 52888U 22064A   24144.74916038 -.00000082  00000-0  87597-4 0  9999
2 52888  51.9761 293.5957 0008655 303.8804  56.1272 13.37574686 94255
